{
    "links": {
        "self": "http://www.neowsapp.com/rest/v1/neo/3840716?api_key=iIulBulltgU6a56xZRHN4H3l9WmuAYTsLGpBGhQ2"
    },
    "id": "3840716",
    "neo_reference_id": "3840716",
    "name": "(2019 FR1)",
    "designation": "2019 FR1",
    "nasa_jpl_url": "http://ssd.jpl.nasa.gov/sbdb.cgi?sstr=3840716",
    "absolute_magnitude_h": 25.1,
    "estimated_diameter": {
        "kilometers": {
            "estimated_diameter_min": 0.0253837029,
            "estimated_diameter_max": 0.0567596853
        },
        "meters": {
            "estimated_diameter_min": 25.3837029364,
            "estimated_diameter_max": 56.7596852866
        },
        "miles": {
            "estimated_diameter_min": 0.0157726969,
            "estimated_diameter_max": 0.0352688224
        },
        "feet": {
            "estimated_diameter_min": 83.279867942,
            "estimated_diameter_max": 186.2194458756
        }
    },
    "is_potentially_hazardous_asteroid": false,
    "close_approach_data": [
        {
            "close_approach_date": "2019-04-02",
            "close_approach_date_full": "2019-Apr-02 00:11",
            "epoch_date_close_approach": 1554163860000,
            "relative_velocity": {
                "kilometers_per_second": "20.5259024951",
                "kilometers_per_hour": "73893.248982508",
                "miles_per_hour": "45914.3912913811"
            },
            "miss_distance": {
                "astronomical": "0.1005035584",
                "lunar": "39.0958842176",
                "kilometers": "15035118.264060608",
                "miles": "9342389.2769400704"
            },
            "orbiting_body": "Earth"
        },
        {
            "close_approach_date": "2019-09-25",
            "close_approach_date_full": "2019-Sep-25 10:02",
            "epoch_date_close_approach": 1569405720000,
            "relative_velocity": {
                "kilometers_per_second": "17.9571090859",
                "kilometers_per_hour": "64645.5927091374",
                "miles_per_hour": "40168.257314186"
            },
            "miss_distance": {
                "astronomical": "0.411031608",
                "lunar": "159.891295512",
                "kilometers": "61489453.05947496",
                "miles": "38207774.413116048"
            },
            "orbiting_body": "Earth"
        },
        {
            "close_approach_date": "2022-04-03",
            "close_approach_date_full": "2022-Apr-03 19:32",
            "epoch_date_close_approach": 1649014320000,
            "relative_velocity": {
                "kilometers_per_second": "19.5773489125",
                "kilometers_per_hour": "70478.4560849867",
                "miles_per_hour": "43792.571782363"
            },
            "miss_distance": {
                "astronomical": "0.1487175392",
                "lunar": "57.8511227488",
                "kilometers": "22247827.095961504",
                "miles": "13824158.7226725952"
            },
            "orbiting_body": "Earth"
        }
    ],
    "orbital_data": {
        "orbit_id": "1",
        "orbit_determination_date": "2019-03-31 16:12:08",
        "first_observation_date": "2019-03-29",
        "last_observation_date": "2019-03-31",
        "data_arc_in_days": 2,
        "observations_used": 58,
        "orbit_uncertainty": "9",
        "minimum_orbit_intersection": ".0986305",
        "jupiter_tisserand_invariant": "4.721",
        "epoch_osculation": "2458572.5",
        "eccentricity": ".3153954549747241",
        "semi_major_axis": "1.314897673907753",
        "inclination": "36.84971682395089",
        "ascending_node_longitude": "187.8684714696072",
        "orbital_period": "550.7269920638493",
        "perihelion_distance": ".900184923800411",
        "perihelion_argument": "77.67512238259198",
        "aphelion_distance": "1.729610424015096",
        "perihelion_time": "2458639.804591942449",
        "mean_anomaly": "316.0042390359677",
        "mean_motion": ".653681415996881",
        "equinox": "J2000",
        "orbit_class": {
            "orbit_class_type": "APO",
            "orbit_class_description": "Near-Earth asteroid orbits which cross the Earth’s orbit similar to that of 1862 Apollo",
            "orbit_class_range": "a (semi-major axis) > 1.0 AU; q (perihelion) < 1.017 AU"
        }
    },
    "is_sentry_object": false
}